{"type": "FeatureCollection", "features": [ {"type": "Feature", "properties": {"norad_id": 66410, "name": "CHUTIAN-2 B", "group": "last-30-days", "lat": -69.53672065563295, "lon": -154.864325029181, "alt_km": 724.9905764572413, "timestamp": "2025-12-09T05:43:19.508048+00:00", "meta": {"OBJECT_NAME": "CHUTIAN-2 B", "OBJECT_ID": "2025-256B", "EPOCH": "2025-12-08T12:01:02.397216", "MEAN_MOTION": 14.50918128, "ECCENTRICITY": 0.0013696, "INCLINATION": 98.2797, "RA_OF_ASC_NODE": 47.3789, "ARG_OF_PERICENTER": 193.7504, "MEAN_ANOMALY": 166.332, "EPHEMERIS_TYPE": 0, "CLASSIFICATION_TYPE": "U", "NORAD_CAT_ID": 66410, "ELEMENT_SET_NO": 999, "REV_AT_EPOCH": 426, "BSTAR": 0.00034704, "MEAN_MOTION_DOT": 1.327e-05, "MEAN_MOTION_DDOT": 0}, "tle": {"line1": "1 66410U 25256B   25342.50072219  .00001327  00000+0  34704-3 0  9992", "line2": "2 66410  98.2797  47.3789 0013696 193.7504 166.3320 14.50918128  4265"}}, "geometry": {"type": "Point", "coordinates": [-154.864325029181, -69.53672065563295]}}, {"type": "Feature", "properties": {"norad_id": 66411, "name": "ZK-1A R/B", "group": "last-30-days", "lat": -60.963637158309545, "lon": 66.05720656669088, "alt_km": 447.5435030948138, "timestamp": "2025-12-09T05:43:19.508059+00:00", "meta": {"OBJECT_NAME": "ZK-1A R/B", "OBJECT_ID": "2025-256C", "EPOCH": "2025-12-08T18:48:04.305888", "MEAN_MOTION": 15.01844094, "ECCENTRICITY": 0.0228713, "INCLINATION": 98.3225, "RA_OF_ASC_NODE": 50.2797, "ARG_OF_PERICENTER": 258.1825, "MEAN_ANOMALY": 99.3665, "EPHEMERIS_TYPE": 0, "CLASSIFICATION_TYPE": "U", "NORAD_CAT_ID": 66411, "ELEMENT_SET_NO": 999, "REV_AT_EPOCH": 445, "BSTAR": 0.00081739, "MEAN_MOTION_DOT": 0.00018825, "MEAN_MOTION_DDOT": 0}, "tle": {"line1": "1 66411U 25256C   25342.78338317  .00018825  00000+0  81739-3 0  9998", "line2": "2 66411  98.3225  50.2797 0228713 258.1825  99.3665 15.01844094  4450"}}, "geometry": {"type": "Point", "coordinates": [66.05720656669088, -60.963637158309545]}}, {"type": "Feature", "properties": {"norad_id": 66412, "name": "HULIANWANG DIGUI 13A", "group": "last-30-days", "lat": 3.1906554976803863, "lon": 94.0951683429012, "alt_km": 829.4256345408785, "timestamp": "2025-12-09T05:43:19.508071+00:00", "meta": {"OBJECT_NAME": "HULIANWANG DIGUI 13A", "OBJECT_ID": "2025-258A", "EPOCH": "2025-12-08T08:38:10.619232", "MEAN_MOTION": 14.20432847, "ECCENTRICITY": 0.00076585, "INCLINATION": 50.0042, "RA_OF_ASC_NODE": 280.4566, "ARG_OF_PERICENTER": 343.0746, "MEAN_ANOMALY": 16.9909, "EPHEMERIS_TYPE": 0, "CLASSIFICATION_TYPE": "U", "NORAD_CAT_ID": 66412, "ELEMENT_SET_NO": 999, "REV_AT_EPOCH": 403, "BSTAR": 0.00033138446, "MEAN_MOTION_DOT": 5.57e-06, "MEAN_MOTION_DDOT": 0}, "tle": {"line1": "1 66412U 25258A   25342.35984513  .00000557  00000+0  33138-3 0  9992", "line2": "2 66412  50.0042 280.4566 0007658 343.0746  16.9909 14.20432847  4032"}}, "geometry": {"type": "Point", "coordinates": [94.0951683429012, 3.1906554976803863]}}, {"type": "Feature", "properties": {"norad_id": 66413, "name": "HULIANWANG DIGUI 13B", "group": "last-30-days", "lat": 37.70644683584083, "lon": 56.37678366563161, "alt_km": 824.1679452495991, "timestamp": "2025-12-09T05:43:19.508084+00:00", "meta": {"OBJECT_NAME": "HULIANWANG DIGUI 13B", "OBJECT_ID": "2025-258B", "EPOCH": "2025-12-08T13:55:26.220576", "MEAN_MOTION": 14.19797153, "ECCENTRICITY": 0.00071183, "INCLINATION": 49.9984, "RA_OF_ASC_NODE": 279.6068, "ARG_OF_PERICENTER": 354.2773, "MEAN_ANOMALY": 5.8056, "EPHEMERIS_TYPE": 0, "CLASSIFICATION_TYPE": "U", "NORAD_CAT_ID": 66413, "ELEMENT_SET_NO": 999, "REV_AT_EPOCH": 406, "BSTAR": 0.00049733401, "MEAN_MOTION_DOT": 9.03e-06, "MEAN_MOTION_DDOT": 0}, "tle": {"line1": "1 66413U 25258B   25342.58016459  .00000903  00000+0  49733-3 0  9996", "line2": "2 66413  49.9984 279.6068 0007118 354.2773   5.8056 14.19797153  4062"}}, "geometry": {"type": "Point", "coordinates": [56.37678366563161, 37.70644683584083]}}, {"type": "Feature", "properties": {"norad_id": 66414, "name": "HULIANWANG DIGUI 13C", "group": "last-30-days", "lat": 25.620287908449626, "lon": 73.09679504972897, "alt_km": 826.9865579179359, "timestamp": "2025-12-09T05:43:19.508095+00:00", "meta": {"OBJECT_NAME": "HULIANWANG DIGUI 13C", "OBJECT_ID": "2025-258C", "EPOCH": "2025-12-08T13:50:17.110752", "MEAN_MOTION": 14.19947362, "ECCENTRICITY": 0.00070001, "INCLINATION": 50.0042, "RA_OF_ASC_NODE": 279.6063, "ARG_OF_PERICENTER": 343.3386, "MEAN_ANOMALY": 16.7294, "EPHEMERIS_TYPE": 0, "CLASSIFICATION_TYPE": "U", "NORAD_CAT_ID": 66414, "ELEMENT_SET_NO": 999, "REV_AT_EPOCH": 406, "BSTAR": 0.00048116814, "MEAN_MOTION_DOT": 8.71e-06, "MEAN_MOTION_DDOT": 0}, "tle": {"line1": "1 66414U 25258C   25342.57658693  .00000871  00000+0  48117-3 0  9997", "line2": "2 66414  50.0042 279.6063 0007000 343.3386  16.7294 14.19947362  4069"}}, "geometry": {"type": "Point", "coordinates": [73.09679504972897, 25.620287908449626]}}, {"type": "Feature", "properties": {"norad_id": 66415, "name": "HULIANWANG DIGUI 13D", "group": "last-30-days", "lat": -4.703535259207725, "lon": 100.71989333700873, "alt_km": 829.273529287655, "timestamp": "2025-12-09T05:43:19.508105+00:00", "meta": {"OBJECT_NAME": "HULIANWANG DIGUI 13D", "OBJECT_ID": "2025-258D", "EPOCH": "2025-12-08T08:35:29.309568", "MEAN_MOTION": 14.20669727, "ECCENTRICITY": 0.00072244, "INCLINATION": 50.0037, "RA_OF_ASC_NODE": 280.4475, "ARG_OF_PERICENTER": 349.9452, "MEAN_ANOMALY": 10.1314, "EPHEMERIS_TYPE": 0, "CLASSIFICATION_TYPE": "U", "NORAD_CAT_ID": 66415, "ELEMENT_SET_NO": 999, "REV_AT_EPOCH": 403, "BSTAR": 0.00031612211, "MEAN_MOTION_DOT": 5.27e-06, "MEAN_MOTION_DDOT": 0}, "tle": {"line1": "1 66415U 25258D   25342.35797812  .00000527  00000+0  31612-3 0  9991", "line2": "2 66415  50.0037 280.4475 0007224 349.9452  10.1314 14.20669727  4031"}}, "geometry": {"type": "Point", "coordinates": [100.71989333700873, -4.703535259207725]}}, {"type": "Feature", "properties": {"norad_id": 66416, "name": "HULIANWANG DIGUI 13E", "group": "last-30-days", "lat": 17.755181342713747, "lon": 81.22427854063292, "alt_km": 826.997556941501, "timestamp": "2025-12-09T05:43:19.508116+00:00", "meta": {"OBJECT_NAME": "HULIANWANG DIGUI 13E", "OBJECT_ID": "2025-258E", "EPOCH": "2025-12-08T08:43:20.952480", "MEAN_MOTION": 14.20131727, "ECCENTRICITY": 0.00059242, "INCLINATION": 50.0052, "RA_OF_ASC_NODE": 280.4795, "ARG_OF_PERICENTER": 347.9368, "MEAN_ANOMALY": 12.14, "EPHEMERIS_TYPE": 0, "CLASSIFICATION_TYPE": "U", "NORAD_CAT_ID": 66416, "ELEMENT_SET_NO": 999, "REV_AT_EPOCH": 403, "BSTAR": 0.00040678029, "MEAN_MOTION_DOT": 7.15e-06, "MEAN_MOTION_DDOT": 0}, "tle": {"line1": "1 66416U 25258E   25342.36343695  .00000715  00000+0  40678-3 0  9990", "line2": "2 66416  50.0052 280.4795 0005924 347.9368  12.1400 14.20131727  4035"}}, "geometry": {"type": "Point", "coordinates": [81.22427854063292, 17.755181342713747]}}, {"type": "Feature", "properties": {"norad_id": 66417, "name": "HULIANWANG DIGUI 13F", "group": "last-30-days", "lat": 10.530412547338553, "lon": 87.79666696267277, "alt_km": 827.4268170090627, "timestamp": "2025-12-09T05:43:19.508126+00:00", "meta": {"OBJECT_NAME": "HULIANWANG DIGUI 13F", "OBJECT_ID": "2025-258F", "EPOCH": "2025-12-08T13:44:44.329056", "MEAN_MOTION": 14.20307849, "ECCENTRICITY": 0.00056434, "INCLINATION": 49.9999, "RA_OF_ASC_NODE": 279.5633, "ARG_OF_PERICENTER": 346.8249, "MEAN_ANOMALY": 13.2514, "EPHEMERIS_TYPE": 0, "CLASSIFICATION_TYPE": "U", "NORAD_CAT_ID": 66417, "ELEMENT_SET_NO": 999, "REV_AT_EPOCH": 406, "BSTAR": 0.00035158092, "MEAN_MOTION_DOT": 5.99e-06, "MEAN_MOTION_DDOT": 0}, "tle": {"line1": "1 66417U 25258F   25342.57273529  .00000599  00000+0  35158-3 0  9999", "line2": "2 66417  49.9999 279.5633 0005643 346.8249  13.2514 14.20307849  4068"}}, "geometry": {"type": "Point", "coordinates": [87.79666696267277, 10.530412547338553]}}, {"type": "Feature", "properties": {"norad_id": 66418, "name": "HULIANWANG DIGUI 13G", "group": "last-30-days", "lat": -11.364256337306351, "lon": 106.44158924655028, "alt_km": 828.4693059124374, "timestamp": "2025-12-09T05:43:19.508137+00:00", "meta": {"OBJECT_NAME": "HULIANWANG DIGUI 13G", "OBJECT_ID": "2025-258G", "EPOCH": "2025-12-08T13:36:58.304736", "MEAN_MOTION": 14.20782766, "ECCENTRICITY": 0.00059872, "INCLINATION": 49.9993, "RA_OF_ASC_NODE": 279.538, "ARG_OF_PERICENTER": 346.7253, "MEAN_ANOMALY": 13.35, "EPHEMERIS_TYPE": 0, "CLASSIFICATION_TYPE": "U", "NORAD_CAT_ID": 66418, "ELEMENT_SET_NO": 999, "REV_AT_EPOCH": 406, "BSTAR": 0.00030017826, "MEAN_MOTION_DOT": 4.94e-06, "MEAN_MOTION_DDOT": 0}, "tle": {"line1": "1 66418U 25258G   25342.56734149  .00000494  00000+0  30018-3 0  9993", "line2": "2 66418  49.9993 279.5380 0005987 346.7253  13.3500 14.20782766  4068"}}, "geometry": {"type": "Point", "coordinates": [106.44158924655028, -11.364256337306351]}}, {"type": "Feature", "properties": {"norad_id": 66419, "name": "HULIANWANG DIGUI 13H", "group": "last-30-days", "lat": -18.69015172818517, "lon": 113.20344856151561, "alt_km": 827.8622562284027, "timestamp": "2025-12-09T05:43:19.508148+00:00", "meta": {"OBJECT_NAME": "HULIANWANG DIGUI 13H", "OBJECT_ID": "2025-258H", "EPOCH": "2025-12-08T10:11:43.764576", "MEAN_MOTION": 14.2089678, "ECCENTRICITY": 0.00052731, "INCLINATION": 50.0007, "RA_OF_ASC_NODE": 280.1123, "ARG_OF_PERICENTER": 342.4085, "MEAN_ANOMALY": 17.6643, "EPHEMERIS_TYPE": 0, "CLASSIFICATION_TYPE": "U", "NORAD_CAT_ID": 66419, "ELEMENT_SET_NO": 999, "REV_AT_EPOCH": 404, "BSTAR": 0.00028195579, "MEAN_MOTION_DOT": 4.56e-06, "MEAN_MOTION_DDOT": 0}, "tle": {"line1": "1 66419U 25258H   25342.42481209  .00000456  00000+0  28196-3 0  9997", "line2": "2 66419  50.0007 280.1123 0005273 342.4085  17.6643 14.20896780  4040"}}, "geometry": {"type": "Point", "coordinates": [113.20344856151561, -18.69015172818517]}}]}